start=new Date('2022-02-07T00:00:00.000Z').valueOf();
sats=[{"REF_FRAME":"TEME","GP_ID":"195442305","CLASSIFICATION_TYPE":"U","NORAD_CAT_ID":"48147","SEMIMAJOR_AXIS":"6925.379","ELEMENT_SET_NO":"999","MEAN_ANOMALY":"291.8298","PERIAPSIS":"546.112","TIME_SYSTEM":"UTC","OBJECT_ID":"2021-027BH","MEAN_ELEMENT_THEORY":"SGP4","CENTER_NAME":"EARTH","LAUNCH_DATE":"2021-04-07","BSTAR":"-0.00005070000000","INCLINATION":"53.0591","MEAN_MOTION":"15.06390224","DECAY_DATE":null,"OBJECT_TYPE":"PAYLOAD","EPHEMERIS_TYPE":"0","TLE_LINE2":"2 48147  53.0591  34.4115 0001634  68.2865 291.8298 15.06390224 47479","EPOCH":"2022-02-06T16:48:25.763616","APOAPSIS":"548.375","COUNTRY_CODE":"US","TLE_LINE1":"1 48147U 21027BH  22037.70029819 -.00001036  00000-0 -50700-4 0  9994","MEAN_MOTION_DDOT":"0.0000000000000","REV_AT_EPOCH":"4747","ARG_OF_PERICENTER":"68.2865","PERIOD":"95.593","ECCENTRICITY":"0.00016340","RA_OF_ASC_NODE":"34.4115","RCS_SIZE":"LARGE","SITE":"AFETR","OBJECT_NAME":"STARLINK-2490","MEAN_MOTION_DOT":"-0.00001036","FILE":"3293822"},{"NORAD_CAT_ID":"48148","SEMIMAJOR_AXIS":"6925.409","REF_FRAME":"TEME","GP_ID":"195442555","CLASSIFICATION_TYPE":"U","TIME_SYSTEM":"UTC","PERIAPSIS":"546.162","MEAN_ANOMALY":"298.0246","ELEMENT_SET_NO":"999","OBJECT_ID":"2021-027BJ","CENTER_NAME":"EARTH","MEAN_ELEMENT_THEORY":"SGP4","DECAY_DATE":null,"INCLINATION":"53.0563","LAUNCH_DATE":"2021-04-07","BSTAR":"-0.00019636000000","MEAN_MOTION":"15.06380266","APOAPSIS":"548.386","EPHEMERIS_TYPE":"0","TLE_LINE2":"2 48148  53.0563  29.5698 0001606  62.0905 298.0246 15.06380266 47529","EPOCH":"2022-02-06T16:04:00.232896","OBJECT_TYPE":"PAYLOAD","PERIOD":"95.593","ARG_OF_PERICENTER":"62.0905","MEAN_MOTION_DDOT":"0.0000000000000","REV_AT_EPOCH":"4752","TLE_LINE1":"1 48148U 21027BJ  22037.66944714 -.00003203  00000-0 -19636-3 0  9990","COUNTRY_CODE":"US","ECCENTRICITY":"0.00016060","FILE":"3293822","SITE":"AFETR","MEAN_MOTION_DOT":"-0.00003203","OBJECT_NAME":"STARLINK-2491","RCS_SIZE":"LARGE","RA_OF_ASC_NODE":"29.5698"},{"ARG_OF_PERICENTER":"73.5992","PERIOD":"95.593","MEAN_MOTION_DDOT":"0.0000000000000","REV_AT_EPOCH":"4784","TLE_LINE1":"1 48149U 21027BK  22037.88137388 -.00001205  00000-0 -62013-4 0  9994","COUNTRY_CODE":"US","APOAPSIS":"548.393","EPHEMERIS_TYPE":"0","TLE_LINE2":"2 48149  53.0562   8.5991 0001624  73.5992 286.5176 15.06381985 47843","EPOCH":"2022-02-06T21:09:10.703232","OBJECT_TYPE":"PAYLOAD","FILE":"3293822","MEAN_MOTION_DOT":"-0.00001205","SITE":"AFETR","OBJECT_NAME":"STARLINK-2492","RCS_SIZE":"MEDIUM","RA_OF_ASC_NODE":"8.5991","ECCENTRICITY":"0.00016240","PERIAPSIS":"546.144","TIME_SYSTEM":"UTC","MEAN_ANOMALY":"286.5176","ELEMENT_SET_NO":"999","NORAD_CAT_ID":"48149","SEMIMAJOR_AXIS":"6925.404","GP_ID":"195443307","REF_FRAME":"TEME","CLASSIFICATION_TYPE":"U","DECAY_DATE":null,"INCLINATION":"53.0562","LAUNCH_DATE":"2021-04-07","BSTAR":"-0.00006201300000","MEAN_MOTION":"15.06381985","OBJECT_ID":"2021-027BK","MEAN_ELEMENT_THEORY":"SGP4","CENTER_NAME":"EARTH"},{"ELEMENT_SET_NO":"999","MEAN_ANOMALY":"265.8749","TIME_SYSTEM":"UTC","PERIAPSIS":"546.815","REF_FRAME":"TEME","GP_ID":"195419792","CLASSIFICATION_TYPE":"U","NORAD_CAT_ID":"48150","SEMIMAJOR_AXIS":"6925.333","INCLINATION":"53.0563","LAUNCH_DATE":"2021-04-07","BSTAR":"0.00007771300000","MEAN_MOTION":"15.06405051","DECAY_DATE":null,"CENTER_NAME":"EARTH","OBJECT_ID":"2021-027BL","MEAN_ELEMENT_THEORY":"SGP4","TLE_LINE1":"1 48150U 21027BL  22037.61965048  .00000877  00000-0  77713-4 0  9994","COUNTRY_CODE":"US","MEAN_MOTION_DDOT":"0.0000000000000","REV_AT_EPOCH":"4741","PERIOD":"95.592","ARG_OF_PERICENTER":"94.2304","OBJECT_TYPE":"PAYLOAD","EPHEMERIS_TYPE":"0","EPOCH":"2022-02-06T14:52:17.801472","TLE_LINE2":"2 48150  53.0563   9.7896 0000553  94.2304 265.8749 15.06405051 47410","APOAPSIS":"547.581","RA_OF_ASC_NODE":"9.7896","RCS_SIZE":"LARGE","SITE":"AFETR","MEAN_MOTION_DOT":"0.00000877","OBJECT_NAME":"STARLINK-2493","FILE":"3293733","ECCENTRICITY":"0.00005530"},{"SITE":"AFETR","MEAN_MOTION_DOT":"-0.00002020","OBJECT_NAME":"STARLINK-2503","FILE":"3293709","RA_OF_ASC_NODE":"9.7708","RCS_SIZE":"LARGE","ECCENTRICITY":"0.00015280","PERIOD":"95.593","ARG_OF_PERICENTER":"65.3734","COUNTRY_CODE":"US","TLE_LINE1":"1 48151U 21027BM  22037.62335891 -.00002020  00000-0 -11680-3 0  9997","REV_AT_EPOCH":"4741","MEAN_MOTION_DDOT":"0.0000000000000","TLE_LINE2":"2 48151  53.0574   9.7708 0001528  65.3734 294.7414 15.06388308 47419","EPOCH":"2022-02-06T14:57:38.209824","EPHEMERIS_TYPE":"0","APOAPSIS":"548.308","OBJECT_TYPE":"PAYLOAD","MEAN_MOTION":"15.06388308","BSTAR":"-0.00011680000000","LAUNCH_DATE":"2021-04-07","INCLINATION":"53.0574","DECAY_DATE":null,"OBJECT_ID":"2021-027BM","CENTER_NAME":"EARTH","MEAN_ELEMENT_THEORY":"SGP4","PERIAPSIS":"546.191","TIME_SYSTEM":"UTC","ELEMENT_SET_NO":"999","MEAN_ANOMALY":"294.7414","CLASSIFICATION_TYPE":"U","GP_ID":"195418303","REF_FRAME":"TEME","SEMIMAJOR_AXIS":"6925.384","NORAD_CAT_ID":"48151"},{"RA_OF_ASC_NODE":"263.4453","RCS_SIZE":"LARGE","SITE":"AFETR","OBJECT_NAME":"STARLINK-2567","MEAN_MOTION_DOT":"-0.00003119","FILE":"3293822","ECCENTRICITY":"0.00015770","COUNTRY_CODE":"US","TLE_LINE1":"1 48276U 21036A   22037.91667824 -.00003119  00000-0 -19077-3 0  9999","MEAN_MOTION_DDOT":"0.0000000000000","REV_AT_EPOCH":"358","ARG_OF_PERICENTER":"68.4678","PERIOD":"95.595","OBJECT_TYPE":"PAYLOAD","EPHEMERIS_TYPE":"0","EPOCH":"2022-02-06T22:00:00.999936","TLE_LINE2":"2 48276  53.0543 263.4453 0001577  68.4678 220.7032 15.06360800  3586","APOAPSIS":"548.426","LAUNCH_DATE":"2021-04-29","INCLINATION":"53.0543","BSTAR":"-0.00019077000000","MEAN_MOTION":"15.06360800","DECAY_DATE":null,"OBJECT_ID":"2021-036A","CENTER_NAME":"EARTH","MEAN_ELEMENT_THEORY":"SGP4","ELEMENT_SET_NO":"999","MEAN_ANOMALY":"220.7032","TIME_SYSTEM":"UTC","PERIAPSIS":"546.242","GP_ID":"195442819","REF_FRAME":"TEME","CLASSIFICATION_TYPE":"U","NORAD_CAT_ID":"48276","SEMIMAJOR_AXIS":"6925.469"},{"PERIOD":"95.594","ARG_OF_PERICENTER":"72.9274","MEAN_MOTION_DDOT":"0.0000000000000","REV_AT_EPOCH":"358","TLE_LINE1":"1 48277U 21036B   22037.91667824  .00035018  00000-0  23595-2 0  9990","COUNTRY_CODE":"US","APOAPSIS":"548.962","EPHEMERIS_TYPE":"0","EPOCH":"2022-02-06T22:00:00.999936","TLE_LINE2":"2 48277  53.0536 228.4294 0002423  72.9274 208.7544 15.06377184  3583","OBJECT_TYPE":"PAYLOAD","FILE":"3293822","MEAN_MOTION_DOT":"0.00035018","SITE":"AFETR","OBJECT_NAME":"STARLINK-2569","RCS_SIZE":"LARGE","RA_OF_ASC_NODE":"228.4294","ECCENTRICITY":"0.00024230","PERIAPSIS":"545.605","TIME_SYSTEM":"UTC","MEAN_ANOMALY":"208.7544","ELEMENT_SET_NO":"999","NORAD_CAT_ID":"48277","SEMIMAJOR_AXIS":"6925.418","GP_ID":"195443069","REF_FRAME":"TEME","CLASSIFICATION_TYPE":"U","DECAY_DATE":null,"BSTAR":"0.00235950000000","LAUNCH_DATE":"2021-04-29","INCLINATION":"53.0536","MEAN_MOTION":"15.06377184","MEAN_ELEMENT_THEORY":"SGP4","CENTER_NAME":"EARTH","OBJECT_ID":"2021-036B"},{"ECCENTRICITY":"0.00017040","FILE":"3293648","SITE":"AFETR","OBJECT_NAME":"STARLINK-2543","MEAN_MOTION_DOT":"0.00012356","RCS_SIZE":"LARGE","RA_OF_ASC_NODE":"243.5685","APOAPSIS":"548.463","TLE_LINE2":"2 48278  53.0537 243.5685 0001704  50.9381  28.2488 15.06377475 44819","EPOCH":"2022-02-06T22:00:00.999936","EPHEMERIS_TYPE":"0","OBJECT_TYPE":"PAYLOAD","ARG_OF_PERICENTER":"50.9381","PERIOD":"95.594","REV_AT_EPOCH":"4481","MEAN_MOTION_DDOT":"0.0000000000000","COUNTRY_CODE":"US","TLE_LINE1":"1 48278U 21036C   22037.91667824  .00012356  00000-0  84743-3 0  9994","CENTER_NAME":"EARTH","OBJECT_ID":"2021-036C","MEAN_ELEMENT_THEORY":"SGP4","DECAY_DATE":null,"MEAN_MOTION":"15.06377475","BSTAR":"0.00084743000000","LAUNCH_DATE":"2021-04-29","INCLINATION":"53.0537","SEMIMAJOR_AXIS":"6925.418","NORAD_CAT_ID":"48278","CLASSIFICATION_TYPE":"U","REF_FRAME":"TEME","GP_ID":"195418373","PERIAPSIS":"546.103","TIME_SYSTEM":"UTC","MEAN_ANOMALY":"28.2488","ELEMENT_SET_NO":"999"},{"PERIAPSIS":"546.034","TIME_SYSTEM":"UTC","ELEMENT_SET_NO":"999","MEAN_ANOMALY":"57.4992","CLASSIFICATION_TYPE":"U","GP_ID":"195443572","REF_FRAME":"TEME","SEMIMAJOR_AXIS":"6925.459","NORAD_CAT_ID":"48279","MEAN_MOTION":"15.06363957","BSTAR":"0.00088849000000","LAUNCH_DATE":"2021-04-29","INCLINATION":"53.0544","DECAY_DATE":null,"OBJECT_ID":"2021-036D","CENTER_NAME":"EARTH","MEAN_ELEMENT_THEORY":"SGP4","PERIOD":"95.594","ARG_OF_PERICENTER":"61.6795","TLE_LINE1":"1 48279U 21036D   22037.91667824  .00012964  00000-0  88849-3 0  9991","COUNTRY_CODE":"US","REV_AT_EPOCH":"359","MEAN_MOTION_DDOT":"0.0000000000000","EPOCH":"2022-02-06T22:00:00.999936","TLE_LINE2":"2 48279  53.0544 243.4496 0001863  61.6795  57.4992 15.06363957  3595","EPHEMERIS_TYPE":"0","APOAPSIS":"548.614","OBJECT_TYPE":"PAYLOAD","SITE":"AFETR","MEAN_MOTION_DOT":"0.00012964","OBJECT_NAME":"STARLINK-2580","FILE":"3293822","RA_OF_ASC_NODE":"243.4496","RCS_SIZE":"LARGE","ECCENTRICITY":"0.00018630"},{"PERIOD":"95.593","ARG_OF_PERICENTER":"69.9829","TLE_LINE1":"1 48280U 21036E   22037.88827795 -.00003661  00000-0 -22704-3 0  9998","COUNTRY_CODE":"US","REV_AT_EPOCH":"4325","MEAN_MOTION_DDOT":"0.0000000000000","TLE_LINE2":"2 48280  53.0541 313.5666 0001613  69.9829 290.1333 15.06387787 43253","EPOCH":"2022-02-06T21:19:07.214880","EPHEMERIS_TYPE":"0","APOAPSIS":"548.368","OBJECT_TYPE":"PAYLOAD","MEAN_MOTION_DOT":"-0.00003661","SITE":"AFETR","OBJECT_NAME":"STARLINK-2565","FILE":"3293822","RA_OF_ASC_NODE":"313.5666","RCS_SIZE":"LARGE","ECCENTRICITY":"0.00016130","PERIAPSIS":"546.134","TIME_SYSTEM":"UTC","ELEMENT_SET_NO":"999","MEAN_ANOMALY":"290.1333","CLASSIFICATION_TYPE":"U","REF_FRAME":"TEME","GP_ID":"195442320","SEMIMAJOR_AXIS":"6925.386","NORAD_CAT_ID":"48280","MEAN_MOTION":"15.06387787","BSTAR":"-0.00022704000000","LAUNCH_DATE":"2021-04-29","INCLINATION":"53.0541","DECAY_DATE":null,"CENTER_NAME":"EARTH","OBJECT_ID":"2021-036E","MEAN_ELEMENT_THEORY":"SGP4"}];
